OBJECT_NAME,OBJECT_ID,EPOCH,MEAN_MOTION,ECCENTRICITY,INCLINATION,RA_OF_ASC_NODE,ARG_OF_PERICENTER,MEAN_ANOMALY,EPHEMERIS_TYPE,CLASSIFICATION_TYPE,NORAD_CAT_ID,ELEMENT_SET_NO,REV_AT_EPOCH,BSTAR,MEAN_MOTION_DOT,MEAN_MOTION_DDOT
ONEWEB-0158,2021-025N,2026-06-05T00:23:10.672800,13.13453448,.00016503,87.8954,322.6409,84.3515,275.7802,0,U,48054,999,25203,-.48002006E-2,-.1739E-4,0
ONEWEB-0157,2021-025P,2026-06-05T04:39:06.668352,13.13469352,.00018606,87.8958,322.6123,105.7634,254.3701,0,U,48055,999,25199,-.13160245E-3,-.35E-6,0
ONEWEB-0162,2021-025Q,2026-06-05T00:25:23.275200,13.13468758,.00019805,87.8950,322.6474,93.7777,266.3578,0,U,48056,999,25194,-.49277578E-3,-.167E-5,0
ONEWEB-0155,2021-025R,2026-06-05T04:14:43.241568,13.13469539,.00016882,87.8950,322.6116,97.9034,262.2287,0,U,48057,999,25210,-.59157041E-3,-.203E-5,0
ONEWEB-0149,2021-025S,2026-06-05T04:46:25.384224,13.13470648,.00020196,87.8963,322.6119,92.7982,267.3379,0,U,48058,999,25191,.74030396E-3,.283E-5,0
ONEWEB-0148,2021-025T,2026-06-05T00:13:23.980512,13.13468908,.00023653,87.8947,322.6556,97.6702,262.4696,0,U,48059,999,25201,.46663424E-4,.3E-6,0
ONEWEB-0160,2021-025U,2026-06-05T04:17:09.979008,13.13470104,.00018227,87.8947,322.6182,69.6751,290.4574,0,U,48060,999,25198,-.75939256E-3,-.265E-5,0
ONEWEB-0163,2021-025V,2026-06-05T00:15:50.059584,13.13469964,.00017949,87.8954,322.6453,102.9858,257.1472,0,U,48061,999,25208,-.10317658E-4,.9E-7,0
ONEWEB-0159,2021-025W,2026-06-05T00:03:39.071520,13.13469686,.00017303,87.8956,322.6402,101.2465,258.8859,0,U,48062,999,25200,.51608332E-3,.201E-5,0
ONEWEB-0164,2021-025X,2026-06-05T05:05:55.129632,13.13470118,.0001803,87.8943,322.6050,93.2796,266.8539,0,U,48063,999,25201,.72025875E-3,.276E-5,0
ONEWEB-0167,2021-025Y,2026-06-05T00:17:02.493888,13.13470777,.00012828,87.8946,322.6558,110.3589,249.7678,0,U,48064,999,25197,-.18977047E-3,-.57E-6,0
ONEWEB-0166,2021-025Z,2026-06-05T04:29:20.667264,13.13471168,.00019747,87.8957,322.5912,96.8817,263.2537,0,U,48065,999,25207,-.71507907E-3,-.248E-5,0
ONEWEB-0151,2021-025AA,2026-06-05T04:31:46.705728,13.13470651,.00015384,87.8949,322.6105,96.5682,263.5622,0,U,48066,999,25201,-.69938054E-3,-.243E-5,0
ONEWEB-0170,2021-025AB,2026-06-05T04:43:58.452384,13.13470448,.0001397,87.8948,322.6094,82.2314,277.8974,0,U,48067,999,25197,-.47760095E-3,-.162E-5,0
ONEWEB-0168,2021-025AC,2026-06-05T04:22:01.876224,13.13469472,.00018379,87.8954,322.6106,99.5250,260.6087,0,U,48068,999,25198,-.78253773E-3,-.273E-5,0
ONEWEB-0173,2021-025AD,2026-06-05T04:09:50.844960,13.13469022,.00016939,87.8946,322.6145,105.4805,254.6512,0,U,48069,999,25222,-.69402859E-3,-.241E-5,0
ONEWEB-0171,2021-025AE,2026-06-05T05:03:29.107584,13.13470939,.00017017,87.8946,322.6160,93.4567,266.6757,0,U,48070,999,25204,.10089611E-2,.381E-5,0
ONEWEB-0172,2021-025AF,2026-06-04T23:05:08.153088,13.13472538,.00012607,87.8961,322.6586,92.0135,268.1138,0,U,48071,999,25290,-.16108583E-2,-.575E-5,0
ONEWEB-0174,2021-025AG,2026-06-05T04:07:25.394880,13.13469430,.00019457,87.8951,322.6125,95.8204,264.3147,0,U,48072,999,25225,-.52359469E-3,-.178E-5,0
ONEWEB-0175,2021-025AH,2026-06-05T04:51:18.036576,13.13478489,.00014085,87.8934,322.5900,92.8642,267.2648,0,U,48073,999,25191,-.4588859E-2,-.1663E-4,0
ONEWEB-0177,2021-025AJ,2026-06-05T05:08:21.742656,13.13470617,.000188,87.8946,322.6067,101.1688,258.9652,0,U,48074,999,25210,.64786888E-3,.249E-5,0
ONEWEB-0178,2021-025AK,2026-06-05T00:06:16.330752,13.13470836,.00015647,87.8940,322.6627,98.7593,261.3713,0,U,48075,999,25212,.39521764E-3,.157E-5,0
ONEWEB-0108,2021-025AL,2026-06-05T04:36:39.714912,13.13470156,.00019179,87.8964,322.6033,89.3532,270.7817,0,U,48076,999,25207,-.34372112E-3,-.113E-5,0
ONEWEB-0169,2021-025AM,2026-06-05T05:22:59.030976,13.13469747,.00017672,87.8956,322.6044,95.7036,264.4294,0,U,48077,999,25073,.8060688E-3,.307E-5,0
ONEWEB-0176,2021-031A,2026-06-05T01:49:49.393632,13.14502151,.00018003,87.8957,292.1138,100.1612,259.9721,0,U,48210,999,24672,.10106374E-3,.5E-6,0
ONEWEB-0184,2021-031B,2026-06-05T03:00:36.148032,13.14502241,.00011192,87.8964,292.1040,111.2507,248.8742,0,U,48211,999,24670,.45538488E-3,.182E-5,0
ONEWEB-0179,2021-031C,2026-06-04T17:46:40.856160,14.25513971,.0218843,87.8982,289.9692,298.2327,59.6925,0,U,48212,999,24727,.66633E-4,.219E-5,0
ONEWEB-0180,2021-031D,2026-06-05T03:05:10.636512,13.14502195,.00019778,87.8960,292.0994,113.7548,246.3789,0,U,48213,999,24663,.51058791E-3,.202E-5,0
ONEWEB-0218,2021-031E,2026-06-05T01:47:31.743744,13.14501458,.00013252,87.8964,292.1093,124.2406,235.8849,0,U,48214,999,24678,.18244621E-3,.8E-6,0
ONEWEB-0209,2021-031F,2026-06-03T07:30:31.257792,13.14504408,.00018785,87.8958,292.4784,102.9433,257.1907,0,U,48215,999,24655,.35489726E-3,.144E-5,0
