ONEWEB-0158             
1 48054U 21025N   26156.01609575 -.00001739  00000+0 -48002-2 0  9991
2 48054  87.8954 322.6409 0001650  84.3515 275.7802 13.13453448252037
ONEWEB-0157             
1 48055U 21025P   26156.19382718 -.00000035  00000+0 -13160-3 0  9994
2 48055  87.8958 322.6123 0001860 105.7634 254.3701 13.13469352251994
ONEWEB-0162             
1 48056U 21025Q   26156.01763050 -.00000167  00000+0 -49278-3 0  9993
2 48056  87.8950 322.6474 0001980  93.7777 266.3578 13.13468758251942
ONEWEB-0155             
1 48057U 21025R   26156.17688937 -.00000203  00000+0 -59157-3 0  9999
2 48057  87.8950 322.6116 0001688  97.9034 262.2287 13.13469539252102
ONEWEB-0149             
1 48058U 21025S   26156.19890491  .00000283  00000+0  74030-3 0  9995
2 48058  87.8963 322.6119 0002019  92.7982 267.3379 13.13470648251913
ONEWEB-0148             
1 48059U 21025T   26156.00930533  .00000030  00000+0  46663-4 0  9990
2 48059  87.8947 322.6556 0002365  97.6702 262.4696 13.13468908252015
ONEWEB-0160             
1 48060U 21025U   26156.17858772 -.00000265  00000+0 -75939-3 0  9993
2 48060  87.8947 322.6182 0001822  69.6751 290.4574 13.13470104251984
ONEWEB-0163             
1 48061U 21025V   26156.01099606  .00000009  00000+0 -10318-4 0  9996
2 48061  87.8954 322.6453 0001794 102.9858 257.1472 13.13469964252082
ONEWEB-0159             
1 48062U 21025W   26156.00253555  .00000201  00000+0  51608-3 0  9990
2 48062  87.8956 322.6402 0001730 101.2465 258.8859 13.13469686252005
ONEWEB-0164             
1 48063U 21025X   26156.21244363  .00000276  00000+0  72026-3 0  9990
2 48063  87.8943 322.6050 0001803  93.2796 266.8539 13.13470118252016
ONEWEB-0167             
1 48064U 21025Y   26156.01183442 -.00000057  00000+0 -18977-3 0  9993
2 48064  87.8946 322.6558 0001282 110.3589 249.7678 13.13470777251974
ONEWEB-0166             
1 48065U 21025Z   26156.18704476 -.00000248  00000+0 -71508-3 0  9999
2 48065  87.8957 322.5912 0001974  96.8817 263.2537 13.13471168252072
ONEWEB-0151             
1 48066U 21025AA  26156.18873502 -.00000243  00000+0 -69938-3 0  9996
2 48066  87.8949 322.6105 0001538  96.5682 263.5622 13.13470651252010
ONEWEB-0170             
1 48067U 21025AB  26156.19720431 -.00000162  00000+0 -47760-3 0  9999
2 48067  87.8948 322.6094 0001397  82.2314 277.8974 13.13470448251970
ONEWEB-0168             
1 48068U 21025AC  26156.18196616 -.00000273  00000+0 -78254-3 0  9996
2 48068  87.8954 322.6106 0001837  99.5250 260.6087 13.13469472251982
ONEWEB-0173             
1 48069U 21025AD  26156.17350515 -.00000241  00000+0 -69403-3 0  9997
2 48069  87.8946 322.6145 0001693 105.4805 254.6512 13.13469022252225
ONEWEB-0171             
1 48070U 21025AE  26156.21075356  .00000381  00000+0  10090-2 0  9991
2 48070  87.8946 322.6160 0001701  93.4567 266.6757 13.13470939252048
ONEWEB-0172             
1 48071U 21025AF  26155.96189992 -.00000575  00000+0 -16109-2 0  9999
2 48071  87.8961 322.6586 0001260  92.0135 268.1138 13.13472538252906
ONEWEB-0174             
1 48072U 21025AG  26156.17182170 -.00000178  00000+0 -52359-3 0  9992
2 48072  87.8951 322.6125 0001945  95.8204 264.3147 13.13469430252256
ONEWEB-0175             
1 48073U 21025AH  26156.20229209 -.00001663  00000+0 -45889-2 0  9991
2 48073  87.8934 322.5900 0001408  92.8642 267.2648 13.13478489251919
ONEWEB-0177             
1 48074U 21025AJ  26156.21414054  .00000249  00000+0  64787-3 0  9993
2 48074  87.8946 322.6067 0001880 101.1688 258.9652 13.13470617252105
ONEWEB-0178             
1 48075U 21025AK  26156.00435568  .00000157  00000+0  39522-3 0  9991
2 48075  87.8940 322.6627 0001564  98.7593 261.3713 13.13470836252128
ONEWEB-0108             
1 48076U 21025AL  26156.19212633 -.00000113  00000+0 -34372-3 0  9990
2 48076  87.8964 322.6033 0001917  89.3532 270.7817 13.13470156252075
ONEWEB-0169             
1 48077U 21025AM  26156.22429434  .00000307  00000+0  80607-3 0  9999
2 48077  87.8956 322.6044 0001767  95.7036 264.4294 13.13469747250736
ONEWEB-0176             
1 48210U 21031A   26156.07626613  .00000050  00000+0  10106-3 0  9998
2 48210  87.8957 292.1138 0001800 100.1612 259.9721 13.14502151246726
ONEWEB-0184             
1 48211U 21031B   26156.12541838  .00000182  00000+0  45538-3 0  9993
2 48211  87.8964 292.1040 0001119 111.2507 248.8742 13.14502241246704
ONEWEB-0179             
1 48212U 21031C   26155.74075065  .00000219  00000+0  66633-4 0  9996
2 48212  87.8982 289.9692 0218843 298.2327  59.6925 14.25513971247271
ONEWEB-0180             
1 48213U 21031D   26156.12859533  .00000202  00000+0  51059-3 0  9997
2 48213  87.8960 292.0994 0001977 113.7548 246.3789 13.14502195246637
ONEWEB-0218             
1 48214U 21031E   26156.07467296  .00000080  00000+0  18245-3 0  9997
2 48214  87.8964 292.1093 0001325 124.2406 235.8849 13.14501458246787
ONEWEB-0209             
1 48215U 21031F   26154.31286178  .00000144  00000+0  35490-3 0  9993
2 48215  87.8958 292.4784 0001878 102.9433 257.1907 13.14504408246552
